CompanyName,RegisteredAddress,City,State,PostalCode
Reliance Retail Limited,"3rd Floor, Court House, Lokmanya Tilak Marg, Dhobi Talao", Mumbai, Maharashtra,400002
Reliance Retail Limited,"3rd Floor, Court House, Lokmanya Tilak Marg, Dhobi Talao",Mumbai,Maharashtra,400002
Reliance Retail Limited,"3rd Floor, Court House, Lokmanya Tilak Marg, Dhobi Talao",Mumbai,Maharashtra,400002
Reliance Retail Limited,"3rd Floor, Court House, Lokmanya Tilak Marg, Dhobi Talao", Mumbai, Maharashtra,400002
Reliance Retail Limited,"3rd Floor, Court House, Lokmanya Tilak Marg, Dhobi Talao", Mumbai, Maharashtra,400002
Reliance Retail Limited,"3rd Floor, Court House, Lokmanya Tilak Marg, Dhobi Talao", Mumbai, Maharashtra,400002
Reliance Retail Limited,"3rd Floor, Court House, Lokmanya Tilak Marg, Dhobi Talao", Mumbai, Maharashtra,400002
Reliance Retail Limited,"3rd Floor, Court House, Lokmanya Tilak Marg, Dhobi Talao",Mumbai,Maharashtra,400002
Reliance Retail Limited,"3rd Floor, Court House, Lokmanya Tilak Marg, Dhobi Talao",Mumbai,Maharashtra,400002
Reliance Retail Limited,"3rd Floor, Court House, Lokmanya Tilak Marg, Dhobi Talao",Mumbai,Maharashtra,400002
Reliance Retail Limited,"3rd Floor, Court House, Lokmanya Tilak Marg, Dhobi Talao",Mumbai,Maharashtra,400002
Reliance Retail Limited,"3rd Floor, Court House, Lokmanya Tilak Marg, Dhobi Talao",Mumbai,Maharashtra,400002
Reliance Retail Limited,"3rd Floor, Court House, Lokmanya Tilak Marg, Dhobi Talao", Mumbai, Maharashtra,400002
Reliance Retail Limited,"3rd Floor, Court House, Lokmanya Tilak Marg, Dhobi Talao", Mumbai, Maharashtra,400002
Reliance Retail Limited,"3rd Floor, Court House, Lokmanya Tilak Marg, Dhobi Talao", Mumbai, Maharashtra,400002
Reliance Retail Limited,"3rd Floor, Court House, Lokmanya Tilak Marg, Dhobi Talao", Mumbai, Maharashtra,400002
Reliance Retail Limited,"3rd Floor, Court House, Lokmanya Tilak Marg, Dhobi Talao", Mumbai, Maharashtra,400002
Reliance Retail Limited,"3rd Floor, Court House, Lokmanya Tilak Marg, Dhobi Talao", Mumbai, Maharashtra,400002
Reliance Retail Limited,"3rd Floor, Court House, Lokmanya Tilak Marg, Dhobi Talao", Mumbai, Maharashtra,400002
Reliance Retail Limited,"3rd Floor, Court House, Lokmanya Tilak Marg, Dhobi Talao", Mumbai, Maharashtra,400002
